COMMENT,ORIGINATOR,NORAD_CAT_ID,OBJECT_NAME,OBJECT_TYPE,CLASSIFICATION_TYPE,INTLDES,EPOCH,EPOCH_MICROSECONDS,MEAN_MOTION,ECCENTRICITY,INCLINATION,RA_OF_ASC_NODE,ARG_OF_PERICENTER,MEAN_ANOMALY,EPHEMERIS_TYPE,ELEMENT_SET_NO,REV_AT_EPOCH,BSTAR,MEAN_MOTION_DOT,MEAN_MOTION_DDOT,FILE,TLE_LINE0,TLE_LINE1,TLE_LINE2,OBJECT_ID,OBJECT_NUMBER,SEMIMAJOR_AXIS,PERIOD,APOGEE,PERIGEE
"GENERATED VIA SPACETRACK.ORG API","JSPOC","39381","PHONESAT 2.4","PAYLOAD","U","13064B","2016-01-14 00:21:11","395872","15.53830515","0.0006746","40.4953","265.0222","335.4302","24.6196","0","999","12064","0.00044585","0.00029321","0","1980067","0 PHONESAT 2.4","1 39381U 13064B   16014.01471523  .00029321  00000-0  44585-3 0  9999","2 39381  40.4953 265.0222 0006746 335.4302  24.6196 15.53830515120640","2013-064B","39381","6783.691","92.674","410.132","400.980"
"GENERATED VIA SPACETRACK.ORG API","JSPOC","6920","NOAA 3","PAYLOAD","U","73086A","2016-01-14 00:21:37","226880","12.40356235","0.000675","101.8628","349.0075","331.8813","76.8261","0","999","91004","0.00011298","-2.9e-07","0","1979989","0 NOAA 3","1 06920U 73086A   16014.01501420 -.00000029  00000-0  11298-3 0  9992","2 06920 101.8628 349.0075 0006750 331.8813  76.8261 12.40356235910043","1973-086A","6920","7883.230","116.095","1510.416","1499.774"
"GENERATED VIA SPACETRACK.ORG API","JSPOC","22744","SL-6 R/B(2)","ROCKET BODY","U","93051D","2016-01-14 00:21:57","14208","2.05601492","0.7143848","65.4004","301.9849","164.8019","27.3905","0","999","16699","0.0029715","5.89e-06","0","1980020","0 SL-6 R/B(2)","1 22744U 93051D   16014.01524322  .00000589  00000-0  29715-2 0  9996","2 22744  65.4004 301.9849 7143848 164.8019  27.3905  2.05601492166994","1993-051D","22744","26124.681","700.384","38409.621","1083.471"
"GENERATED VIA SPACETRACK.ORG API","JSPOC","27848","CUBESAT XI 4","PAYLOAD","U","03031J","2016-01-14 00:22:24","923136","14.21533938","0.0010551","98.7041","24.54","62.7555","297.4696","0","999","65029","7.3425e-05","1.17e-06","0","1980058","0 CUBESAT XI 4","1 27848U 03031J   16014.01556624  .00000117  00000-0  73425-4 0  9991","2 27848  98.7041  24.5400 0010551  62.7555 297.4696 14.21533938650291","2003-031J","27848","7198.306","101.299","827.766","812.576"
"GENERATED VIA SPACETRACK.ORG API","JSPOC","40384","INMARSAT 5-F2","PAYLOAD","U","15005A","2016-01-14 00:22:42","30336","1.00264914","5.25e-05","0.0388","72.6267","353.3336","357.5875","0","999","349","0.0001","0","0","1980129","0 INMARSAT 5-F2","1 40384U 15005A   16014.01576424  .00000000  00000-0  10000-3 0  9995","2 40384   0.0388  72.6267 0000525 353.3336 357.5875  1.00264914  3491","2015-005A","40384","42166.658","1436.195","35790.737","35786.309"
"GENERATED VIA SPACETRACK.ORG API","JSPOC","36985","TIANHUI 1","PAYLOAD","U","10040A","2016-01-14 00:23:55","802976","15.23109557","0.0011334","97.5388","146.1109","220.9547","273.2013","0","999","29971","-0.00082793","-0.00019571","0","1979985","0 TIANHUI 1","1 36985U 10040A   16014.01661809 -.00019571  00000-0 -82793-3 0  9996","2 36985  97.5388 146.1109 0011334 220.9547 273.2013 15.23109557299710","2010-040A","36985","6874.604","94.543","504.261","488.678"
"GENERATED VIA SPACETRACK.ORG API","JSPOC","29517","CZ-3 R/B","ROCKET BODY","U","06048B","2016-01-14 00:24:30","952224","6.40905258","0.4630804","28.4576","240.5276","21.5008","352.9145","0","999","13281","0.0011786","0.00088266","0","1980053","0 CZ-3 R/B","1 29517U 06048B   16014.01702491  .00088266 -11743-6  11786-2 0  9996","2 29517  28.4576 240.5276 4630804  21.5008 352.9145  6.40905258132818","2006-048B","29517","12242.570","224.682","11533.730","195.141"
"GENERATED VIA SPACETRACK.ORG API","JSPOC","21228","DELTA 2 R/B","ROCKET BODY","U","91028B","2016-01-14 00:25:40","199232","12.53215415","0.1143752","23.9994","285.1492","225.7814","269.0123","0","999","13247","2.6288e-05","2.37e-06","0","1980062","0 DELTA 2 R/B","1 21228U 91028B   16014.01782638  .00000237  00000-0  26288-4 0  9994","2 21228  23.9994 285.1492 1143752 225.7814 269.0123 12.53215415132475","1991-028B","21228","7829.211","114.904","2346.544","555.608"
"GENERATED VIA SPACETRACK.ORG API","JSPOC","6235","NOAA 2 (ITOS-D)","PAYLOAD","U","72082A","2016-01-14 00:25:52","637376","12.5307702","0.0003682","101.6027","343.4446","278.0345","123.4731","0","999","97828","0.00011921","-2.5e-07","0","1979989","0 NOAA 2 (ITOS-D)","1 06235U 72082A   16014.01797034 -.00000025  00000-0  11921-3 0  9993","2 06235 101.6027 343.4446 0003682 278.0345 123.4731 12.53077020978283","1972-082A","6235","7829.787","114.917","1454.535","1448.769"
"GENERATED VIA SPACETRACK.ORG API","JSPOC","40061","GONETS M 08 (M18)","PAYLOAD","U","14036A","2016-01-14 00:26:58","557984","12.42885207","0.0029427","82.5108","152.1454","173.1166","187.0324","0","999","6950","0","1e-07","0","1980094","0 GONETS M 08 (M18)","1 40061U 14036A   16014.01873331  .00000010  00000-0  00000+0 0  9993","2 40061  82.5108 152.1454 0029427 173.1166 187.0324 12.42885207 69502","2014-036A","40061","7872.533","115.859","1517.564","1471.231"
"GENERATED VIA SPACETRACK.ORG API","JSPOC","41099","COSMOS 2512","PAYLOAD","U","15071B","2016-01-14 00:27:15","481152","14.61344721","0.0008096","98.1752","23.0219","120.7012","239.499","0","999","575","0.00017616","8.24e-06","0","1980125","0 COSMOS 2512","1 41099U 15071B   16014.01892918  .00000824  00000-0  17616-3 0  9995","2 41099  98.1752  23.0219 0008096 120.7012 239.4990 14.61344721  5756","2015-071B","41099","7066.972","98.539","694.558","683.115"
"GENERATED VIA SPACETRACK.ORG API","JSPOC","21263","NOAA 12","PAYLOAD","U","91032A","2016-01-14 00:30:23","708736","14.25795286","0.0013725","98.6108","42.5272","4.756","355.3748","0","999","28260","2.1592e-05","8e-08","0","1979989","0 NOAA 12","1 21263U 91032A   16014.02110774  .00000008  00000-0  21592-4 0  9994","2 21263  98.6108  42.5272 0013725   4.7560 355.3748 14.25795286282602","1991-032A","21263","7183.957","100.996","815.681","795.962"
"GENERATED VIA SPACETRACK.ORG API","JSPOC","27453","NOAA 17","PAYLOAD","U","02032A","2016-01-14 00:30:28","324224","14.24918409","0.0010607","98.3644","354.8287","286.4844","73.517","0","999","70468","3.9603e-05","5.1e-07","0","1979990","0 NOAA 17","1 27453U 02032A   16014.02116116  .00000051  00000-0  39603-4 0  9999","2 27453  98.3644 354.8287 0010607 286.4844  73.5170 14.24918409704684","2002-032A","27453","7186.903","101.058","816.392","801.145"
"GENERATED VIA SPACETRACK.ORG API","JSPOC","801","OPS 4412 (TRANSIT 9)","PAYLOAD","U","64026A","2016-01-14 00:30:32","499072","14.14229085","0.0051006","90.5029","335.5187","57.2244","303.3843","0","999","64815","0.0001528","3.05e-06","0","1980075","0 OPS 4412 (TRANSIT 9)","1 00801U 64026A   16014.02120948  .00000305  00000-0  15280-3 0  9992","2 00801  90.5029 335.5187 0051006  57.2244 303.3843 14.14229085648158","1964-026A","801","7223.072","101.822","881.779","808.095"
"GENERATED VIA SPACETRACK.ORG API","JSPOC","13923","NOAA 8","PAYLOAD","U","83022A","2016-01-14 00:30:37","221696","14.28492847","0.0014254","98.4759","11.8976","251.1346","108.829","0","999","70762","5.2511e-05","8.9e-07","0","1979989","0 NOAA 8","1 13923U 83022A   16014.02126414  .00000089  00000-0  52511-4 0  9990","2 13923  98.4759  11.8976 0014254 251.1346 108.8290 14.28492847707621","1983-022A","13923","7174.910","100.805","807.002","786.547"
"GENERATED VIA SPACETRACK.ORG API","JSPOC","40553","GONETS M 12 (M22)","PAYLOAD","U","15020B","2016-01-14 00:31:20","921088","12.42886012","0.0014711","82.4884","243.1386","10.4021","349.7363","0","999","3582","0","1e-07","0","1980109","0 GONETS M 12 (M22)","1 40553U 15020B   16014.02176992  .00000010  00000-0  00000+0 0  9993","2 40553  82.4884 243.1386 0014711  10.4021 349.7363 12.42886012 35829","2015-020B","40553","7872.529","115.859","1505.975","1482.813"
"GENERATED VIA SPACETRACK.ORG API","JSPOC","15354","ERBS","PAYLOAD","U","84108B","2016-01-14 00:32:02","870880","15.38969301","0.0012443","57.0083","211.0699","172.0059","188.1195","0","999","71798","0.0001889","7.021e-05","0","1980093","0 ERBS","1 15354U 84108B   16014.02225545  .00007021  00000-0  18890-3 0  9995","2 15354  57.0083 211.0699 0012443 172.0059 188.1195 15.38969301717989","1984-108B","15354","6827.292","93.569","457.653","440.662"
"GENERATED VIA SPACETRACK.ORG API","JSPOC","14783","COSMOS 1540","PAYLOAD","U","84022A","2016-01-14 00:33:18","824256","1.00284958","0.000952","15.627","344.6536","176.5692","34.3104","0","999","8283","0","-1.05e-06","0","1980042","0 COSMOS 1540","1 14783U 84022A   16014.02313454 -.00000105  00000-0  00000+0 0  9999","2 14783  15.6270 344.6536 0009520 176.5692  34.3104  1.00284958 82832","1984-022A","14783","42161.039","1435.908","35823.041","35742.767"
"GENERATED VIA SPACETRACK.ORG API","JSPOC","14377","EKRAN 11","PAYLOAD","U","83100A","2016-01-14 00:33:18","824256","1.00212354","0.0005272","14.2751","341.6617","230.7469","341.7055","0","999","11303","0","-7.5e-07","0","1980042","0 EKRAN 11","1 14377U 83100A   16014.02313454 -.00000075  00000-0  00000+0 0  9990","2 14377  14.2751 341.6617 0005272 230.7469 341.7055  1.00212354113030","1983-100A","14377","42181.400","1436.948","35825.503","35781.027"
"GENERATED VIA SPACETRACK.ORG API","JSPOC","39429","DOVE 3","PAYLOAD","U","13066P","2016-01-14 00:33:19","992384","14.59838534","0.0147205","97.6864","47.9302","241.3516","117.283","0","999","11420","0.00020542","1.092e-05","0","1980069","0 DOVE 3","1 39429U 13066P   16014.02314806  .00001092  00000-0  20542-3 0  9997","2 39429  97.6864  47.9302 0147205 241.3516 117.2830 14.59838534114205","2013-066P","39429","7071.832","98.641","797.798","589.596"
